ONEWEB-0161             
1 48053U 21025M   25212.00421199  .00000291  00000+0  76129-3 0  9997
2 48053  87.8968  24.0323 0001582  90.2274 269.9037 13.13471566211357
ONEWEB-0158             
1 48054U 21025N   25212.19209711 -.00000451  00000+0 -12694-2 0  9998
2 48054  87.8969  23.9740 0001915  93.8436 266.2912 13.13470107211496
ONEWEB-0157             
1 48055U 21025P   25212.21749731  .00000022  00000+0  25924-4 0  9997
2 48055  87.8965  23.9791 0001377  85.4215 274.7072 13.13469893211449
ONEWEB-0162             
1 48056U 21025Q   25211.88895215 -.00000292  00000+0 -83326-3 0  9999
2 48056  87.8966  24.0428 0001735  92.4333 267.6995 13.13469257211367
ONEWEB-0149             
1 48058U 21025S   25211.91786924  .00000177  00000+0  44934-3 0  9993
2 48058  87.8963  24.0399 0001705  98.4930 261.6392 13.13469782211312
ONEWEB-0148             
1 48059U 21025T   25212.18533557 -.00000157  00000+0 -46551-3 0  9993
2 48059  87.8966  24.0109 0001341 110.7661 249.3612 13.13471345211473
ONEWEB-0160             
1 48060U 21025U   25212.04991136 -.00000261  00000+0 -74970-3 0  9993
2 48060  87.8965  24.0350 0002606  96.1380 264.0046 13.13469618211400
ONEWEB-0163             
1 48061U 21025V   25211.88232225 -.00000242  00000+0 -69898-3 0  9994
2 48061  87.8966  24.0487 0001485  85.6592 274.4706 13.13469366211504
ONEWEB-0159             
1 48062U 21025W   25212.17856347  .00000049  00000+0  99290-4 0  9998
2 48062  87.8968  23.9712 0001525  91.0485 269.0819 13.13469379211467
ONEWEB-0164             
1 48063U 21025X   25212.00759294  .00000385  00000+0  10198-2 0  9995
2 48063  87.8965  24.0155 0001824  91.1689 268.9649 13.13469727211430
ONEWEB-0167             
1 48064U 21025Y   25212.18788446 -.00000236  00000+0 -68240-3 0  9995
2 48064  87.8976  24.0114 0001790  65.6601 294.4715 13.13469954211430
ONEWEB-0166             
1 48065U 21025Z   25212.21073269 -.00000130  00000+0 -38989-3 0  9990
2 48065  87.8962  23.9598 0001641  96.0901 264.0415 13.13470788211512
ONEWEB-0151             
1 48066U 21025AA  25212.21242119 -.00000127  00000+0 -38211-3 0  9997
2 48066  87.8966  23.9829 0001806  87.1880 272.9455 13.13470477211465
ONEWEB-0170             
1 48067U 21025AB  25211.91618024  .00000183  00000+0  46716-3 0  9995
2 48067  87.8967  24.0477 0002231  85.6153 274.5231 13.13470389211379
ONEWEB-0168             
1 48068U 21025AC  25212.20565181 -.00000749  00000+0 -20870-2 0  9996
2 48068  87.8970  23.9714 0001756  90.0124 270.1206 13.13465724211422
