[{"OBJECT_NAME":"ONEWEB-0161","OBJECT_ID":"2021-025M","EPOCH":"2025-07-31T00:06:03.915936","MEAN_MOTION":13.13471566,"ECCENTRICITY":0.0001582,"INCLINATION":87.8968,"RA_OF_ASC_NODE":24.0323,"ARG_OF_PERICENTER":90.2274,"MEAN_ANOMALY":269.9037,"EPHEMERIS_TYPE":0,"CLASSIFICATION_TYPE":"U","NORAD_CAT_ID":48053,"ELEMENT_SET_NO":999,"REV_AT_EPOCH":21135,"BSTAR":0.00076129,"MEAN_MOTION_DOT":2.91e-6,"MEAN_MOTION_DDOT":0},{"OBJECT_NAME":"ONEWEB-0158","OBJECT_ID":"2021-025N","EPOCH":"2025-07-31T04:36:37.190304","MEAN_MOTION":13.13470107,"ECCENTRICITY":0.0001915,"INCLINATION":87.8969,"RA_OF_ASC_NODE":23.974,"ARG_OF_PERICENTER":93.8436,"MEAN_ANOMALY":266.2912,"EPHEMERIS_TYPE":0,"CLASSIFICATION_TYPE":"U","NORAD_CAT_ID":48054,"ELEMENT_SET_NO":999,"REV_AT_EPOCH":21149,"BSTAR":-0.0012694,"MEAN_MOTION_DOT":-4.51e-6,"MEAN_MOTION_DDOT":0},{"OBJECT_NAME":"ONEWEB-0157","OBJECT_ID":"2021-025P","EPOCH":"2025-07-31T05:13:11.767584","MEAN_MOTION":13.13469893,"ECCENTRICITY":0.0001377,"INCLINATION":87.8965,"RA_OF_ASC_NODE":23.9791,"ARG_OF_PERICENTER":85.4215,"MEAN_ANOMALY":274.7072,"EPHEMERIS_TYPE":0,"CLASSIFICATION_TYPE":"U","NORAD_CAT_ID":48055,"ELEMENT_SET_NO":999,"REV_AT_EPOCH":21144,"BSTAR":2.5924e-5,"MEAN_MOTION_DOT":2.2e-7,"MEAN_MOTION_DDOT":0},{"OBJECT_NAME":"ONEWEB-0162","OBJECT_ID":"2021-025Q","EPOCH":"2025-07-30T21:20:05.465760","MEAN_MOTION":13.13469257,"ECCENTRICITY":0.0001735,"INCLINATION":87.8966,"RA_OF_ASC_NODE":24.0428,"ARG_OF_PERICENTER":92.4333,"MEAN_ANOMALY":267.6995,"EPHEMERIS_TYPE":0,"CLASSIFICATION_TYPE":"U","NORAD_CAT_ID":48056,"ELEMENT_SET_NO":999,"REV_AT_EPOCH":21136,"BSTAR":-0.00083326,"MEAN_MOTION_DOT":-2.92e-6,"MEAN_MOTION_DDOT":0},{"OBJECT_NAME":"ONEWEB-0149","OBJECT_ID":"2021-025S","EPOCH":"2025-07-30T22:01:43.902336","MEAN_MOTION":13.13469782,"ECCENTRICITY":0.0001705,"INCLINATION":87.8963,"RA_OF_ASC_NODE":24.0399,"ARG_OF_PERICENTER":98.493,"MEAN_ANOMALY":261.6392,"EPHEMERIS_TYPE":0,"CLASSIFICATION_TYPE":"U","NORAD_CAT_ID":48058,"ELEMENT_SET_NO":999,"REV_AT_EPOCH":21131,"BSTAR":0.00044934,"MEAN_MOTION_DOT":1.77e-6,"MEAN_MOTION_DDOT":0},{"OBJECT_NAME":"ONEWEB-0148","OBJECT_ID":"2021-025T","EPOCH":"2025-07-31T04:26:52.993248","MEAN_MOTION":13.13471345,"ECCENTRICITY":0.0001341,"INCLINATION":87.8966,"RA_OF_ASC_NODE":24.0109,"ARG_OF_PERICENTER":110.7661,"MEAN_ANOMALY":249.3612,"EPHEMERIS_TYPE":0,"CLASSIFICATION_TYPE":"U","NORAD_CAT_ID":48059,"ELEMENT_SET_NO":999,"REV_AT_EPOCH":21147,"BSTAR":-0.00046551,"MEAN_MOTION_DOT":-1.57e-6,"MEAN_MOTION_DDOT":0},{"OBJECT_NAME":"ONEWEB-0160","OBJECT_ID":"2021-025U","EPOCH":"2025-07-31T01:11:52.341504","MEAN_MOTION":13.13469618,"ECCENTRICITY":0.0002606,"INCLINATION":87.8965,"RA_OF_ASC_NODE":24.035,"ARG_OF_PERICENTER":96.138,"MEAN_ANOMALY":264.0046,"EPHEMERIS_TYPE":0,"CLASSIFICATION_TYPE":"U","NORAD_CAT_ID":48060,"ELEMENT_SET_NO":999,"REV_AT_EPOCH":21140,"BSTAR":-0.0007497,"MEAN_MOTION_DOT":-2.61e-6,"MEAN_MOTION_DDOT":0},{"OBJECT_NAME":"ONEWEB-0163","OBJECT_ID":"2021-025V","EPOCH":"2025-07-30T21:10:32.642400","MEAN_MOTION":13.13469366,"ECCENTRICITY":0.0001485,"INCLINATION":87.8966,"RA_OF_ASC_NODE":24.0487,"ARG_OF_PERICENTER":85.6592,"MEAN_ANOMALY":274.4706,"EPHEMERIS_TYPE":0,"CLASSIFICATION_TYPE":"U","NORAD_CAT_ID":48061,"ELEMENT_SET_NO":999,"REV_AT_EPOCH":21150,"BSTAR":-0.00069898,"MEAN_MOTION_DOT":-2.42e-6,"MEAN_MOTION_DDOT":0},{"OBJECT_NAME":"ONEWEB-0159","OBJECT_ID":"2021-025W","EPOCH":"2025-07-31T04:17:07.883808","MEAN_MOTION":13.13469379,"ECCENTRICITY":0.0001525,"INCLINATION":87.8968,"RA_OF_ASC_NODE":23.9712,"ARG_OF_PERICENTER":91.0485,"MEAN_ANOMALY":269.0819,"EPHEMERIS_TYPE":0,"CLASSIFICATION_TYPE":"U","NORAD_CAT_ID":48062,"ELEMENT_SET_NO":999,"REV_AT_EPOCH":21146,"BSTAR":9.929e-5,"MEAN_MOTION_DOT":4.9e-7,"MEAN_MOTION_DDOT":0},{"OBJECT_NAME":"ONEWEB-0164","OBJECT_ID":"2021-025X","EPOCH":"2025-07-31T00:10:56.030016","MEAN_MOTION":13.13469727,"ECCENTRICITY":0.0001824,"INCLINATION":87.8965,"RA_OF_ASC_NODE":24.0155,"ARG_OF_PERICENTER":91.1689,"MEAN_ANOMALY":268.9649,"EPHEMERIS_TYPE":0,"CLASSIFICATION_TYPE":"U","NORAD_CAT_ID":48063,"ELEMENT_SET_NO":999,"REV_AT_EPOCH":21143,"BSTAR":0.0010198,"MEAN_MOTION_DOT":3.85e-6,"MEAN_MOTION_DDOT":0},{"OBJECT_NAME":"ONEWEB-0167","OBJECT_ID":"2021-025Y","EPOCH":"2025-07-31T04:30:33.217344","MEAN_MOTION":13.13469954,"ECCENTRICITY":0.000179,"INCLINATION":87.8976,"RA_OF_ASC_NODE":24.0114,"ARG_OF_PERICENTER":65.6601,"MEAN_ANOMALY":294.4715,"EPHEMERIS_TYPE":0,"CLASSIFICATION_TYPE":"U","NORAD_CAT_ID":48064,"ELEMENT_SET_NO":999,"REV_AT_EPOCH":21143,"BSTAR":-0.0006824,"MEAN_MOTION_DOT":-2.36e-6,"MEAN_MOTION_DDOT":0},{"OBJECT_NAME":"ONEWEB-0166","OBJECT_ID":"2021-025Z","EPOCH":"2025-07-31T05:03:27.304416","MEAN_MOTION":13.13470788,"ECCENTRICITY":0.0001641,"INCLINATION":87.8962,"RA_OF_ASC_NODE":23.9598,"ARG_OF_PERICENTER":96.0901,"MEAN_ANOMALY":264.0415,"EPHEMERIS_TYPE":0,"CLASSIFICATION_TYPE":"U","NORAD_CAT_ID":48065,"ELEMENT_SET_NO":999,"REV_AT_EPOCH":21151,"BSTAR":-0.00038989,"MEAN_MOTION_DOT":-1.3e-6,"MEAN_MOTION_DDOT":0},{"OBJECT_NAME":"ONEWEB-0151","OBJECT_ID":"2021-025AA","EPOCH":"2025-07-31T05:05:53.190816","MEAN_MOTION":13.13470477,"ECCENTRICITY":0.0001806,"INCLINATION":87.8966,"RA_OF_ASC_NODE":23.9829,"ARG_OF_PERICENTER":87.188,"MEAN_ANOMALY":272.9455,"EPHEMERIS_TYPE":0,"CLASSIFICATION_TYPE":"U","NORAD_CAT_ID":48066,"ELEMENT_SET_NO":999,"REV_AT_EPOCH":21146,"BSTAR":-0.00038211,"MEAN_MOTION_DOT":-1.27e-6,"MEAN_MOTION_DDOT":0},{"OBJECT_NAME":"ONEWEB-0170","OBJECT_ID":"2021-025AB","EPOCH":"2025-07-30T21:59:17.972736","MEAN_MOTION":13.13470389,"ECCENTRICITY":0.0002231,"INCLINATION":87.8967,"RA_OF_ASC_NODE":24.0477,"ARG_OF_PERICENTER":85.6153,"MEAN_ANOMALY":274.5231,"EPHEMERIS_TYPE":0,"CLASSIFICATION_TYPE":"U","NORAD_CAT_ID":48067,"ELEMENT_SET_NO":999,"REV_AT_EPOCH":21137,"BSTAR":0.00046716,"MEAN_MOTION_DOT":1.83e-6,"MEAN_MOTION_DDOT":0},{"OBJECT_NAME":"ONEWEB-0168","OBJECT_ID":"2021-025AC","EPOCH":"2025-07-31T04:56:08.316384","MEAN_MOTION":13.13465724,"ECCENTRICITY":0.0001756,"INCLINATION":87.897,"RA_OF_ASC_NODE":23.9714,"ARG_OF_PERICENTER":90.0124,"MEAN_ANOMALY":270.1206,"EPHEMERIS_TYPE":0,"CLASSIFICATION_TYPE":"U","NORAD_CAT_ID":48068,"ELEMENT_SET_NO":999,"REV_AT_EPOCH":21142,"BSTAR":-0.002087,"MEAN_MOTION_DOT":-7.49e-6,"MEAN_MOTION_DDOT":0}]
